[
  {
    "OBJECT_NAME": "STARLINK-1480",
    "OBJECT_ID": "20038M",
    "EPOCH": "2025-11-11T06:25:05.527776",
    "MEAN_MOTION": 15.06405782,
    "ECCENTRICITY": 9.01e-05,
    "INCLINATION": 53.0543,
    "RA_OF_ASC_NODE": 48.2345,
    "ARG_OF_PERICENTER": 77.0854,
    "MEAN_ANOMALY": 283.0235,
    "EPHEMERIS_TYPE": 0,
    "CLASSIFICATION_TYPE": "U",
    "NORAD_CAT_ID": 45741,
    "ELEMENT_SET_NO": 999,
    "REV_AT_EPOCH": 29835,
    "BSTAR": 0.00029262,
    "MEAN_MOTION_DOT": 4.081e-05,
    "MEAN_MOTION_DDOT": 0.0,
    "TLE_LINE1": "1 45741U 20038M   25315.26742509  .00004081  00000+0  29262-3 0  9991",
    "TLE_LINE2": "2 45741  53.0543  48.2345 0000901  77.0854 283.0235 15.06405782298358",
    "COMMENT": "Grouped by shell and plane from TLE"
  },
  {
    "OBJECT_NAME": "STARLINK-2150",
    "OBJECT_ID": "21017T",
    "EPOCH": "2025-11-10T13:06:05.544864",
    "MEAN_MOTION": 15.06402388,
    "ECCENTRICITY": 0.0001183,
    "INCLINATION": 53.056,
    "RA_OF_ASC_NODE": 41.4754,
    "ARG_OF_PERICENTER": 109.654,
    "MEAN_ANOMALY": 250.4577,
    "EPHEMERIS_TYPE": 0,
    "CLASSIFICATION_TYPE": "U",
    "NORAD_CAT_ID": 47739,
    "ELEMENT_SET_NO": 999,
    "REV_AT_EPOCH": 25961,
    "BSTAR": 0.00064428,
    "MEAN_MOTION_DOT": 9.329e-05,
    "MEAN_MOTION_DDOT": 0.0,
    "TLE_LINE1": "1 47739U 21017T   25314.54589751  .00009329  00000+0  64428-3 0  9999",
    "TLE_LINE2": "2 47739  53.0560  41.4754 0001183 109.6540 250.4577 15.06402388259614",
    "COMMENT": "Grouped by shell and plane from TLE"
  },
  {
    "OBJECT_NAME": "STARLINK-2315",
    "OBJECT_ID": "21018C",
    "EPOCH": "2025-11-11T06:23:06.241344",
    "MEAN_MOTION": 15.06401432,
    "ECCENTRICITY": 0.0001483,
    "INCLINATION": 53.0576,
    "RA_OF_ASC_NODE": 43.2444,
    "ARG_OF_PERICENTER": 80.8298,
    "MEAN_ANOMALY": 279.2859,
    "EPHEMERIS_TYPE": 0,
    "CLASSIFICATION_TYPE": "U",
    "NORAD_CAT_ID": 47789,
    "ELEMENT_SET_NO": 999,
    "REV_AT_EPOCH": 25903,
    "BSTAR": 6.461200000000001e-05,
    "MEAN_MOTION_DOT": 6.81e-06,
    "MEAN_MOTION_DDOT": 0.0,
    "TLE_LINE1": "1 47789U 21018C   25315.26604446  .00000681  00000+0  64612-4 0  9992",
    "TLE_LINE2": "2 47789  53.0576  43.2444 0001483  80.8298 279.2859 15.06401432259032",
    "COMMENT": "Grouped by shell and plane from TLE"
  },
  {
    "OBJECT_NAME": "STARLINK-2334",
    "OBJECT_ID": "21018F",
    "EPOCH": "2025-11-10T16:13:52.473792",
    "MEAN_MOTION": 15.0640373,
    "ECCENTRICITY": 0.0001507,
    "INCLINATION": 53.0549,
    "RA_OF_ASC_NODE": 45.8888,
    "ARG_OF_PERICENTER": 100.2397,
    "MEAN_ANOMALY": 259.8762,
    "EPHEMERIS_TYPE": 0,
    "CLASSIFICATION_TYPE": "U",
    "NORAD_CAT_ID": 47792,
    "ELEMENT_SET_NO": 999,
    "REV_AT_EPOCH": 25894,
    "BSTAR": 0.0011881,
    "MEAN_MOTION_DOT": 0.00017461,
    "MEAN_MOTION_DDOT": 0.0,
    "TLE_LINE1": "1 47792U 21018F   25314.67630178  .00017461  00000+0  11881-2 0  9993",
    "TLE_LINE2": "2 47792  53.0549  45.8888 0001507 100.2397 259.8762 15.06403730258949",
    "COMMENT": "Grouped by shell and plane from TLE"
  },
  {
    "OBJECT_NAME": "STARLINK-2338",
    "OBJECT_ID": "21018G",
    "EPOCH": "2025-11-10T16:35:04.552224",
    "MEAN_MOTION": 15.06392877,
    "ECCENTRICITY": 0.0001363,
    "INCLINATION": 53.0552,
    "RA_OF_ASC_NODE": 45.8222,
    "ARG_OF_PERICENTER": 89.382,
    "MEAN_ANOMALY": 270.7325,
    "EPHEMERIS_TYPE": 0,
    "CLASSIFICATION_TYPE": "U",
    "NORAD_CAT_ID": 47793,
    "ELEMENT_SET_NO": 999,
    "REV_AT_EPOCH": 25893,
    "BSTAR": 0.0,
    "MEAN_MOTION_DOT": -7.854e-05,
    "MEAN_MOTION_DDOT": 0.0,
    "TLE_LINE1": "1 47793U 21018G   25314.69102491 -.00007854  00000+0 -50902-3 0  9993",
    "TLE_LINE2": "2 47793  53.0552  45.8222 0001363  89.3820 270.7325 15.06392877258939",
    "COMMENT": "Grouped by shell and plane from TLE"
  },
  {
    "OBJECT_NAME": "STARLINK-2373",
    "OBJECT_ID": "21018K",
    "EPOCH": "2025-11-11T07:05:33.998496",
    "MEAN_MOTION": 15.06412773,
    "ECCENTRICITY": 5.5e-05,
    "INCLINATION": 53.0554,
    "RA_OF_ASC_NODE": 43.1118,
    "ARG_OF_PERICENTER": 54.7153,
    "MEAN_ANOMALY": 305.3888,
    "EPHEMERIS_TYPE": 0,
    "CLASSIFICATION_TYPE": "U",
    "NORAD_CAT_ID": 47796,
    "ELEMENT_SET_NO": 999,
    "REV_AT_EPOCH": 25903,
    "BSTAR": 0.00029136,
    "MEAN_MOTION_DOT": 4.063e-05,
    "MEAN_MOTION_DDOT": 0.0,
    "TLE_LINE1": "1 47796U 21018K   25315.29553239  .00004063  00000+0  29136-3 0  9995",
    "TLE_LINE2": "2 47796  53.0554  43.1118 0000550  54.7153 305.3888 15.06412773259030",
    "COMMENT": "Grouped by shell and plane from TLE"
  },
  {
    "OBJECT_NAME": "STARLINK-2379",
    "OBJECT_ID": "21018M",
    "EPOCH": "2025-11-11T05:45:56.882880",
    "MEAN_MOTION": 15.06417772,
    "ECCENTRICITY": 0.0001522,
    "INCLINATION": 53.0545,
    "RA_OF_ASC_NODE": 43.3592,
    "ARG_OF_PERICENTER": 94.8259,
    "MEAN_ANOMALY": 265.2904,
    "EPHEMERIS_TYPE": 0,
    "CLASSIFICATION_TYPE": "U",
    "NORAD_CAT_ID": 47798,
    "ELEMENT_SET_NO": 999,
    "REV_AT_EPOCH": 25902,
    "BSTAR": 0.00050697,
    "MEAN_MOTION_DOT": 7.281e-05,
    "MEAN_MOTION_DDOT": 0.0,
    "TLE_LINE1": "1 47798U 21018M   25315.24024170  .00007281  00000+0  50697-3 0  9990",
    "TLE_LINE2": "2 47798  53.0545  43.3592 0001522  94.8259 265.2904 15.06417772259028",
    "COMMENT": "Grouped by shell and plane from TLE"
  },
  {
    "OBJECT_NAME": "STARLINK-2380",
    "OBJECT_ID": "21018N",
    "EPOCH": "2025-11-11T07:16:10.892640",
    "MEAN_MOTION": 15.06405655,
    "ECCENTRICITY": 0.00018,
    "INCLINATION": 53.0549,
    "RA_OF_ASC_NODE": 43.0765,
    "ARG_OF_PERICENTER": 91.8515,
    "MEAN_ANOMALY": 268.268,
    "EPHEMERIS_TYPE": 0,
    "CLASSIFICATION_TYPE": "U",
    "NORAD_CAT_ID": 47799,
    "ELEMENT_SET_NO": 999,
    "REV_AT_EPOCH": 25902,
    "BSTAR": 0.00030296,
    "MEAN_MOTION_DOT": 4.235e-05,
    "MEAN_MOTION_DDOT": 0.0,
    "TLE_LINE1": "1 47799U 21018N   25315.30290385  .00004235  00000+0  30296-3 0  9990",
    "TLE_LINE2": "2 47799  53.0549  43.0765 0001800  91.8515 268.2680 15.06405655259024",
    "COMMENT": "Grouped by shell and plane from TLE"
  },
  {
    "OBJECT_NAME": "STARLINK-2381",
    "OBJECT_ID": "21018P",
    "EPOCH": "2025-11-11T06:12:28.358784",
    "MEAN_MOTION": 15.06421619,
    "ECCENTRICITY": 0.0001117,
    "INCLINATION": 53.054,
    "RA_OF_ASC_NODE": 43.2756,
    "ARG_OF_PERICENTER": 89.8803,
    "MEAN_ANOMALY": 270.2314,
    "EPHEMERIS_TYPE": 0,
    "CLASSIFICATION_TYPE": "U",
    "NORAD_CAT_ID": 47800,
    "ELEMENT_SET_NO": 999,
    "REV_AT_EPOCH": 25902,
    "BSTAR": 0.00055139,
    "MEAN_MOTION_DOT": 7.946e-05,
    "MEAN_MOTION_DDOT": 0.0,
    "TLE_LINE1": "1 47800U 21018P   25315.25866156  .00007946  00000+0  55139-3 0  9997",
    "TLE_LINE2": "2 47800  53.0540  43.2756 0001117  89.8803 270.2314 15.06421619259023",
    "COMMENT": "Grouped by shell and plane from TLE"
  },
  {
    "OBJECT_NAME": "STARLINK-2385",
    "OBJECT_ID": "21018T",
    "EPOCH": "2025-11-11T05:14:06.675648",
    "MEAN_MOTION": 15.06409598,
    "ECCENTRICITY": 0.0001781,
    "INCLINATION": 53.0546,
    "RA_OF_ASC_NODE": 43.4568,
    "ARG_OF_PERICENTER": 67.3871,
    "MEAN_ANOMALY": 292.7306,
    "EPHEMERIS_TYPE": 0,
    "CLASSIFICATION_TYPE": "U",
    "NORAD_CAT_ID": 47804,
    "ELEMENT_SET_NO": 999,
    "REV_AT_EPOCH": 25901,
    "BSTAR": 0.00020831,
    "MEAN_MOTION_DOT": 2.823e-05,
    "MEAN_MOTION_DDOT": 0.0,
    "TLE_LINE1": "1 47804U 21018T   25315.21813282  .00002823  00000+0  20831-3 0  9999",
    "TLE_LINE2": "2 47804  53.0546  43.4568 0001781  67.3871 292.7306 15.06409598259010",
    "COMMENT": "Grouped by shell and plane from TLE"
  },
  {
    "OBJECT_NAME": "STARLINK-2386",
    "OBJECT_ID": "21018U",
    "EPOCH": "2025-11-11T06:01:54.321888",
    "MEAN_MOTION": 15.06561711,
    "ECCENTRICITY": 2.11e-05,
    "INCLINATION": 53.0571,
    "RA_OF_ASC_NODE": 43.5506,
    "ARG_OF_PERICENTER": 88.0801,
    "MEAN_ANOMALY": 272.0213,
    "EPHEMERIS_TYPE": 0,
    "CLASSIFICATION_TYPE": "U",
    "NORAD_CAT_ID": 47805,
    "ELEMENT_SET_NO": 999,
    "REV_AT_EPOCH": 25902,
    "BSTAR": 0.0,
    "MEAN_MOTION_DOT": -0.00039579,
    "MEAN_MOTION_DDOT": 0.0,
    "TLE_LINE1": "1 47805U 21018U   25315.25132317 -.00039579  00000+0 -26415-2 0  9990",
    "TLE_LINE2": "2 47805  53.0571  43.5506 0000211  88.0801 272.0213 15.06561711259027",
    "COMMENT": "Grouped by shell and plane from TLE"
  },
  {
    "OBJECT_NAME": "STARLINK-2420",
    "OBJECT_ID": "21018AW",
    "EPOCH": "2025-11-11T07:23:28.601952",
    "MEAN_MOTION": 15.06408822,
    "ECCENTRICITY": 0.0001943,
    "INCLINATION": 53.0565,
    "RA_OF_ASC_NODE": 48.0535,
    "ARG_OF_PERICENTER": 91.981,
    "MEAN_ANOMALY": 268.1402,
    "EPHEMERIS_TYPE": 0,
    "CLASSIFICATION_TYPE": "U",
    "NORAD_CAT_ID": 47831,
    "ELEMENT_SET_NO": 999,
    "REV_AT_EPOCH": 25901,
    "BSTAR": 4.0856e-05,
    "MEAN_MOTION_DOT": 3.27e-06,
    "MEAN_MOTION_DDOT": 0.0,
    "TLE_LINE1": "1 47831U 21018AW  25315.30796993  .00000327  00000+0  40856-4 0  9995",
    "TLE_LINE2": "2 47831  53.0565  48.0535 0001943  91.9810 268.1402 15.06408822259015",
    "COMMENT": "Grouped by shell and plane from TLE"
  },
  {
    "OBJECT_NAME": "STARLINK-2427",
    "OBJECT_ID": "21018BC",
    "EPOCH": "2025-11-11T06:17:48.415488",
    "MEAN_MOTION": 15.0640768,
    "ECCENTRICITY": 0.0001292,
    "INCLINATION": 53.057,
    "RA_OF_ASC_NODE": 43.2634,
    "ARG_OF_PERICENTER": 58.3822,
    "MEAN_ANOMALY": 301.7293,
    "EPHEMERIS_TYPE": 0,
    "CLASSIFICATION_TYPE": "U",
    "NORAD_CAT_ID": 47837,
    "ELEMENT_SET_NO": 999,
    "REV_AT_EPOCH": 25903,
    "BSTAR": 0.00018284,
    "MEAN_MOTION_DOT": 2.443e-05,
    "MEAN_MOTION_DDOT": 0.0,
    "TLE_LINE1": "1 47837U 21018BC  25315.26236592  .00002443  00000+0  18284-3 0  9990",
    "TLE_LINE2": "2 47837  53.0570  43.2634 0001292  58.3822 301.7293 15.06407680259036",
    "COMMENT": "Grouped by shell and plane from TLE"
  }
]